{
  "norad_id": 58584,
  "name": "ARKTIKA-M 2",
  "history": [
    {
      "epoch": "2026-03-23T12:29:12.014880",
      "apogee_km": 38452.56538870128,
      "perigee_km": 1904.271916113793,
      "latitude_deg": 8.170597456937344,
      "longitude_deg": -31.65331680024974,
      "semi_major_axis_km": 26556.555652407536,
      "eccentricity": 0.68812187,
      "inclination_deg": 63.222,
      "raan_deg": 163.8934,
      "arg_perigee_deg": 267.7008,
      "mean_anomaly_deg": 18.8555,
      "mean_motion_rev_day": 2.00606565
    }
  ]
}